ORBCOMM FM103           
1 40091U 14040F   24175.66936148  .00000657  00000+0  18297-3 0  9992
2 40091  47.0061 269.1711 0000880  60.3134 299.7838 14.56707197511802
ORBCOMM FM114           
1 41179U 15081A   24176.38703099  .00000979  00000+0  25384-3 0  9995
2 41179  47.0012 175.0390 0000748 183.9321 176.1558 14.56776132452320
ORBCOMM FM119           
1 41180U 15081B   24176.22224770  .00000826  00000+0  22043-3 0  9994
2 41180  47.0014  85.0203 0001536 227.0042 133.0714 14.56687990453503
ORBCOMM FM105           
1 41181U 15081C   24175.88458870  .00000383  00000+0  15532-3 0  9999
2 41181  47.0027  57.5974 0001578 170.6307 189.4603 14.44445899448930
ORBCOMM FM110           
1 41182U 15081D   24176.15871790  .00000976  00000+0  25340-3 0  9997
2 41182  47.0002 175.5217 0002843 311.9369  48.1273 14.56769614452294
ORBCOMM FM118           
1 41183U 15081E   24176.06787187  .00000704  00000+0  19328-3 0  9992
2 41183  47.0025 176.2692 0002931 309.9417  50.1211 14.56753972452288
ORBCOMM FM112           
1 41184U 15081F   24176.19879625  .00001093  00000+0  27975-3 0  9995
2 41184  46.9997  84.3333 0001415 200.2929 159.7899 14.56657756453498
ORBCOMM FM113           
1 41185U 15081G   24175.90169663  .00000984  00000+0  25566-3 0  9990
2 41185  47.0014  86.0075 0001273 219.9983 140.0808 14.56656665453381
